IRIDIUM 113             
1 42803U 17039A   26191.33373856  .00000017  00000+0 -11455-5 0  9993
2 42803  86.3990 312.5038 0002193  91.1544 268.9903 14.34217385474500
NORSAT 2                
1 42828U 17042D   26192.28514054  .00006187  00000+0  27070-3 0  9997
2 42828  97.4047   5.3526 0008520 333.5830  26.4971 15.22382300491401
TECHNOSAT               
1 42829U 17042E   26191.38633588  .00002596  00000+0  18607-3 0  9998
2 42829  97.4303 348.1655 0017861  18.8202 341.3681 15.05092056490191
FLYING LAPTOP           
1 42831U 17042G   26192.51429750  .00002255  00000+0  17907-3 0  9995
2 42831  97.4788 347.1294 0019851  44.1451 316.1353 15.01297837490105
WNISAT 1R               
1 42835U 17042L   26192.41118363  .00000747  00000+0  61560-4 0  9992
2 42835  97.4823 347.6686 0011318  76.7063 283.5424 15.01854318490142
LEMUR-2-GREENBERG       
1 42837U 17042N   26190.49536315  .00011532  00000+0  37497-3 0  9996
2 42837  97.3831  11.0293 0007135 283.6729  76.3718 15.32031511491802
LEMUR-2-FURIAUS         
1 42840U 17042R   26191.74629140  .00012077  00000+0  40490-3 0  9990
2 42840  97.3778  10.1778 0006360 347.2297  12.8782 15.31036825491819
CORVUS BC2              
1 42846U 17042X   26191.31136565  .00002103  00000+0  14633-3 0  9992
2 42846  97.4090 351.7667 0013871  39.1681 321.0548 15.06442373490548
CORVUS BC1              
1 42847U 17042Y   26191.70191670  .00001633  00000+0  11410-3 0  9991
2 42847  97.4119 352.9716 0012081  16.3956 343.7660 15.06607650490630
VRSS-2                  
1 42954U 17060A   26192.50638351  .00000320  00000+0  47420-4 0  9994
2 42954  97.6508 229.1370 0017780  25.2910 334.9170 14.81233571472057
MOHAMMED VI-A           
1 43005U 17070A   26192.53029028  .00000327  00000+0  53491-4 0  9993
2 43005  97.9552 264.5255 0001179  92.7067 267.4278 14.77100172467574
FENGYUN 3D              
1 43010U 17072A   26192.53159425 -.00000048  00000+0 -70852-6 0  9990
2 43010  99.0138 167.3950 0001757  22.0375 338.0876 14.19744144448448
NOAA 20 (JPSS-1)        
1 43013U 17073A   26192.46007140  .00000008  00000+0  24766-4 0  9997
2 43013  98.7774 131.7076 0001243 127.9590 232.1698 14.19516006447912
MAKERSAT 0              
1 43016U 17073D   26192.14351799  .00012570  00000+0  33352-3 0  9994
2 43016  97.4598  74.8581 0105180 186.6952 173.2893 15.32906919470136
RADFXSAT (FOX-1B)       
1 43017U 17073E   26192.08484625  .00003616  00000+0  15974-3 0  9994
2 43017  97.4682  58.8129 0148032 245.7914 112.7786 15.13028349469003
JILIN-1 04              
1 43022U 17074A   26192.47408367  .00008138  00000+0  18622-3 0  9990
2 43022  97.4870 302.7461 0005249 110.1906 249.9906 15.43066208478013
JILIN-1 05              
1 43023U 17074B   26192.51665360  .00004542  00000+0  13941-3 0  9998
2 43023  97.4876 299.0072 0006279 134.8224 225.3530 15.34248171477736
JILIN-1 06              
1 43024U 17074C   26192.49187450  .00003480  00000+0  10830-3 0  9999
2 43024  97.4803 295.9593 0007838 145.2055 214.9701 15.33969211477569
IRIDIUM 116             
1 43072U 17083C   26191.72697443  .00000147  00000+0  45420-4 0  9996
2 43072  86.3983 312.1606 0002404  99.2562 260.8905 14.34220153447546
IRIDIUM 130             
1 43073U 17083D   26192.32318694  .00000135  00000+0  41294-4 0  9994
2 43073  86.3991 312.1891 0002193 101.1278 259.0164 14.34216997447575
LKW-2                   
1 43080U 17084A   26192.54487836  .00006416  00000+0  24717-3 0  9990
2 43080  97.1189 231.2049 0003485 125.2315 234.9251 15.26663375475402
SUPERVIEW-1 03          
1 43099U 18002A   26192.47229455  .00011133  00000+0  26926-3 0  9990
2 43099  97.3133 277.2848 0047154  94.1449 266.5189 15.40123150472106
CARTOSAT-2F             
1 43111U 18004A   26192.44663613  .00002606  00000+0  12691-3 0  9991
2 43111  97.4783 251.8426 0002421 145.2470 214.8923 15.19252689471010
LKW-3                   
1 43146U 18006A   26192.55713880  .00003982  00000+0  11720-3 0  9995
2 43146  97.6630 354.0942 0002726 191.9622 168.1557 15.35698417472459
ASNARO-2                
1 43152U 18007A   26192.50524703  .00005552  00000+0  24319-3 0  9995
2 43152  97.3972 199.0521 0001984  94.3726 265.7738 15.22414492471110
JILIN-1 07              
1 43159U 18008E   26192.47484843  .00005448  00000+0  16199-3 0  9990
2 43159  97.1768 211.7606 0007136 343.7363  16.3651 15.35124404468729
JILIN-1 08              
1 43160U 18008F   26192.49210498  .00003727  00000+0  11564-3 0  9996
2 43160  97.1804 211.0666 0005765   6.7070 353.4249 15.33983239468677
S-NET D                 
1 43186U 18014G   26191.61765389  .00003549  00000+0  18357-3 0  9997
2 43186  97.5340  96.2628 0006440 304.7096  55.3530 15.16892455462311
S-NET B                 
1 43187U 18014H   26192.15730542  .00003099  00000+0  16086-3 0  9998
2 43187  97.5347  96.7865 0007015 296.4851  63.5663 15.16864719462390
S-NET A                 
1 43188U 18014J   26192.53992088  .00003026  00000+0  15695-3 0  9991
2 43188  97.5357  97.3804 0006891 295.5438  64.5082 15.16906119462458
